{
  "norad_id": 59540,
  "name": "STARLINK-31397",
  "history": [
    {
      "epoch": "2026-03-28T11:18:32.393664Z",
      "apogee_km": 484.16885390774405,
      "perigee_km": 481.91276142102834,
      "latitude_deg": 4.422821825918082e-05,
      "longitude_deg": -117.80250624877351,
      "height_km": 482.8597767758151,
      "semi_major_axis_km": 6861.177807664386,
      "eccentricity": 0.00016441,
      "inclination_deg": 43.0013,
      "raan_deg": 237.7236,
      "arg_perigee_deg": 267.8695,
      "mean_anomaly_deg": 92.1969,
      "mean_motion_rev_day": 15.27582768
    },
    {
      "epoch": "2026-03-29T03:00:05.864832Z",
      "apogee_km": 484.1902857418145,
      "perigee_km": 481.8659974384491,
      "latitude_deg": 3.5041169588755316e-05,
      "longitude_deg": 2.4692471608706987,
      "height_km": 482.91908009381683,
      "semi_major_axis_km": 6861.1651415901315,
      "eccentricity": 0.00016938,
      "inclination_deg": 43.002,
      "raan_deg": 234.0293,
      "arg_perigee_deg": 264.3803,
      "mean_anomaly_deg": 95.6856,
      "mean_motion_rev_day": 15.27586998
    },
    {
      "epoch": "2026-03-30T08:49:04.890144Z",
      "apogee_km": 484.34781379705146,
      "perigee_km": 481.78954464749586,
      "latitude_deg": -3.845655183687771e-06,
      "longitude_deg": -93.01674810668933,
      "height_km": 483.0215546207604,
      "semi_major_axis_km": 6861.205679222273,
      "eccentricity": 0.00018643,
      "inclination_deg": 43.0026,
      "raan_deg": 227.0138,
      "arg_perigee_deg": 262.1117,
      "mean_anomaly_deg": 97.9523,
      "mean_motion_rev_day": 15.2757346
    },
    {
      "epoch": "2026-03-30T16:39:51.830496Z",
      "apogee_km": 484.1710473713365,
      "perigee_km": 481.95062652734214,
      "latitude_deg": 2.866890938751724e-05,
      "longitude_deg": 147.11876308242572,
      "height_km": 483.10199335814036,
      "semi_major_axis_km": 6861.197836949339,
      "eccentricity": 0.00016181,
      "inclination_deg": 43.0022,
      "raan_deg": 225.1671,
      "arg_perigee_deg": 256.2379,
      "mean_anomaly_deg": 103.8293,
      "mean_motion_rev_day": 15.27576079
    },
    {
      "epoch": "2026-03-31T16:12:12.170304Z",
      "apogee_km": 484.1120506206398,
      "perigee_km": 481.92745831001776,
      "latitude_deg": 1.92671720907799e-06,
      "longitude_deg": 147.52867497395113,
      "height_km": 482.98498760276397,
      "semi_major_axis_km": 6861.156754465329,
      "eccentricity": 0.0001592,
      "inclination_deg": 43.0025,
      "raan_deg": 219.6285,
      "arg_perigee_deg": 260.0816,
      "mean_anomaly_deg": 99.9856,
      "mean_motion_rev_day": 15.27589799
    },
    {
      "epoch": "2026-04-01T09:27:56.395008Z",
      "apogee_km": 483.8957357626132,
      "perigee_km": 482.2559058984334,
      "latitude_deg": -1.554360436317388e-05,
      "longitude_deg": -116.17644915263037,
      "height_km": 482.77889501214116,
      "semi_major_axis_km": 6861.212820830523,
      "eccentricity": 0.0001195,
      "inclination_deg": 43.002,
      "raan_deg": 215.5666,
      "arg_perigee_deg": 275.1562,
      "mean_anomaly_deg": 84.9153,
      "mean_motion_rev_day": 15.27571075
    },
    {
      "epoch": "2026-04-02T16:51:02.742048Z",
      "apogee_km": 483.35616127807316,
      "perigee_km": 482.6227068622711,
      "latitude_deg": -2.5569761310394617e-05,
      "longitude_deg": 124.37185528273612,
      "height_km": 482.7715087780435,
      "semi_major_axis_km": 6861.126434070172,
      "eccentricity": 5.345e-05,
      "inclination_deg": 43.0006,
      "raan_deg": 208.1803,
      "arg_perigee_deg": 269.051,
      "mean_anomaly_deg": 91.028,
      "mean_motion_rev_day": 15.27599925
    },
    {
      "epoch": "2026-04-03T00:41:49.675488Z",
      "apogee_km": 483.53556370748447,
      "perigee_km": 482.46303088149125,
      "latitude_deg": -7.58622152370603e-07,
      "longitude_deg": 4.510186965606398,
      "height_km": 482.6635699107512,
      "semi_major_axis_km": 6861.136297294488,
      "eccentricity": 7.816e-05,
      "inclination_deg": 43.0013,
      "raan_deg": 206.3364,
      "arg_perigee_deg": 282.0588,
      "mean_anomaly_deg": 78.0176,
      "mean_motion_rev_day": 15.27596631
    },
    {
      "epoch": "2026-04-04T14:21:35.367264Z",
      "apogee_km": 484.3002452205237,
      "perigee_km": 481.6765508683129,
      "latitude_deg": 4.273004751923659e-05,
      "longitude_deg": 149.16369849536895,
      "height_km": 482.06356335078095,
      "semi_major_axis_km": 6861.125398044418,
      "eccentricity": 0.0001912,
      "inclination_deg": 43.0007,
      "raan_deg": 197.477,
      "arg_perigee_deg": 302.3462,
      "mean_anomaly_deg": 57.7205,
      "mean_motion_rev_day": 15.27600271
    },
    {
      "epoch": "2026-04-05T07:37:21.151488Z",
      "apogee_km": 484.1996751838342,
      "perigee_km": 482.15088733665016,
      "latitude_deg": 1.7392829193774633e-05,
      "longitude_deg": -114.55025170604908,
      "height_km": 483.00340589396126,
      "semi_major_axis_km": 6861.312281260242,
      "eccentricity": 0.0001493,
      "inclination_deg": 43.0018,
      "raan_deg": 193.4128,
      "arg_perigee_deg": 267.1378,
      "mean_anomaly_deg": 92.9303,
      "mean_motion_rev_day": 15.2753786
    },
    {
      "epoch": "2026-04-05T15:28:07.911264Z",
      "apogee_km": 483.9860391440179,
      "perigee_km": 482.20897940611667,
      "latitude_deg": -3.602484620592818e-05,
      "longitude_deg": 125.58522134467715,
      "height_km": 483.2133113599814,
      "semi_major_axis_km": 6861.2345092750675,
      "eccentricity": 0.0001295,
      "inclination_deg": 43.0022,
      "raan_deg": 191.5654,
      "arg_perigee_deg": 247.5668,
      "mean_anomaly_deg": 112.5046,
      "mean_motion_rev_day": 15.27563832
    },
    {
      "epoch": "2026-04-06T05:35:31.347744Z",
      "apogee_km": 484.5415401908249,
      "perigee_km": 481.4899738906033,
      "latitude_deg": 3.514422715026258e-05,
      "longitude_deg": -90.16487424272931,
      "height_km": 482.9647692781714,
      "semi_major_axis_km": 6861.152757040713,
      "eccentricity": 0.00022238,
      "inclination_deg": 43.0048,
      "raan_deg": 188.2429,
      "arg_perigee_deg": 263.5584,
      "mean_anomaly_deg": 96.5015,
      "mean_motion_rev_day": 15.27591134
    },
    {
      "epoch": "2026-04-07T06:42:01.445760Z",
      "apogee_km": 483.5461189509251,
      "perigee_km": 482.5107690854229,
      "latitude_deg": 1.65690059200304e-05,
      "longitude_deg": -113.7335688933881,
      "height_km": 483.1990107591333,
      "semi_major_axis_km": 6861.165444018174,
      "eccentricity": 7.545e-05,
      "inclination_deg": 42.9974,
      "raan_deg": 182.3308,
      "arg_perigee_deg": 220.2638,
      "mean_anomaly_deg": 139.8158,
      "mean_motion_rev_day": 15.27586897
    },
    {
      "epoch": "2026-04-08T14:05:11.987520Z",
      "apogee_km": 483.49643481112435,
      "perigee_km": 483.1356596099022,
      "latitude_deg": 2.247401447767984e-05,
      "longitude_deg": 126.80102151465806,
      "height_km": 483.01016798313265,
      "semi_major_axis_km": 6861.4530472105125,
      "eccentricity": 2.629e-05,
      "inclination_deg": 43.0,
      "raan_deg": 174.9483,
      "arg_perigee_deg": 296.8739,
      "mean_anomaly_deg": 63.2086,
      "mean_motion_rev_day": 15.27490853
    },
    {
      "epoch": "2026-04-09T12:03:20.285568Z",
      "apogee_km": 484.22370768072324,
      "perigee_km": 481.8747119699283,
      "latitude_deg": 1.091288734507883e-05,
      "longitude_deg": 151.19399764053145,
      "height_km": 482.6864059475422,
      "semi_major_axis_km": 6861.186209825326,
      "eccentricity": 0.00017118,
      "inclination_deg": 43.002,
      "raan_deg": 169.7781,
      "arg_perigee_deg": 276.8454,
      "mean_anomaly_deg": 83.2203,
      "mean_motion_rev_day": 15.27579962
    },
    {
      "epoch": "2026-04-10T11:35:40.761024Z",
      "apogee_km": 483.83911501689454,
      "perigee_km": 482.16088090719313,
      "latitude_deg": -3.7228880603699525e-06,
      "longitude_deg": 151.60325179288785,
      "height_km": 482.6986780465595,
      "semi_major_axis_km": 6861.136997962044,
      "eccentricity": 0.0001223,
      "inclination_deg": 43.0005,
      "raan_deg": 164.2394,
      "arg_perigee_deg": 275.3291,
      "mean_anomaly_deg": 84.7421,
      "mean_motion_rev_day": 15.27596397
    },
    {
      "epoch": "2026-04-11T12:42:11.606400Z",
      "apogee_km": 483.86580818653147,
      "perigee_km": 482.2561711381568,
      "latitude_deg": -1.1801104100118455e-05,
      "longitude_deg": 128.03494646806058,
      "height_km": 482.7393932272067,
      "semi_major_axis_km": 6861.197989662343,
      "eccentricity": 0.0001173,
      "inclination_deg": 43.0006,
      "raan_deg": 158.3308,
      "arg_perigee_deg": 277.0071,
      "mean_anomaly_deg": 83.0647,
      "mean_motion_rev_day": 15.27576028
    },
    {
      "epoch": "2026-04-13T03:56:06.241632Z",
      "apogee_km": 483.6976672653391,
      "perigee_km": 482.3716772279595,
      "latitude_deg": -3.901964688962182e-05,
      "longitude_deg": -111.28572505140384,
      "height_km": 482.69418351611824,
      "semi_major_axis_km": 6861.171672246649,
      "eccentricity": 9.663e-05,
      "inclination_deg": 42.9996,
      "raan_deg": 149.099,
      "arg_perigee_deg": 280.1451,
      "mean_anomaly_deg": 79.9291,
      "mean_motion_rev_day": 15.27584817
    },
    {
      "epoch": "2026-04-14T11:19:15.505536Z",
      "apogee_km": 483.91319230602676,
      "perigee_km": 482.7121641543499,
      "latitude_deg": -3.301550912740112e-05,
      "longitude_deg": 129.25040957359306,
      "height_km": 483.21327643228256,
      "semi_major_axis_km": 6861.4496782301885,
      "eccentricity": 8.752e-05,
      "inclination_deg": 43.0008,
      "raan_deg": 141.7127,
      "arg_perigee_deg": 258.0557,
      "mean_anomaly_deg": 102.0196,
      "mean_motion_rev_day": 15.27491978
    }
  ]
}